STARLINK-2411
1 17826C 21018AR  21326.17499230 -.00020025  00000-0 -13416-2 0  3260
2 17826  53.0552  92.9582 0001345  75.7627 343.5686 15.06420261    14
